{
    "links": {
        "self": "http://www.neowsapp.com/rest/v1/neo/54051299?api_key=iIulBulltgU6a56xZRHN4H3l9WmuAYTsLGpBGhQ2"
    },
    "id": "54051299",
    "neo_reference_id": "54051299",
    "name": "(2020 QF3)",
    "designation": "2020 QF3",
    "nasa_jpl_url": "http://ssd.jpl.nasa.gov/sbdb.cgi?sstr=54051299",
    "absolute_magnitude_h": 25.807,
    "estimated_diameter": {
        "kilometers": {
            "estimated_diameter_min": 0.0183296839,
            "estimated_diameter_max": 0.0409864193
        },
        "meters": {
            "estimated_diameter_min": 18.3296839463,
            "estimated_diameter_max": 40.98641931
        },
        "miles": {
            "estimated_diameter_min": 0.011389534,
            "estimated_diameter_max": 0.0254677724
        },
        "feet": {
            "estimated_diameter_min": 60.1367602784,
            "estimated_diameter_max": 134.4698839291
        }
    },
    "is_potentially_hazardous_asteroid": false,
    "close_approach_data": [
        {
            "close_approach_date": "2020-08-09",
            "close_approach_date_full": "2020-Aug-09 08:17",
            "epoch_date_close_approach": 1596961020000,
            "relative_velocity": {
                "kilometers_per_second": "10.1673947852",
                "kilometers_per_hour": "36602.6212267877",
                "miles_per_hour": "22743.4453950559"
            },
            "miss_distance": {
                "astronomical": "0.0271278986",
                "lunar": "10.5527525554",
                "kilometers": "4058275.848135982",
                "miles": "2521695.6794492716"
            },
            "orbiting_body": "Earth"
        },
        {
            "close_approach_date": "2062-09-01",
            "close_approach_date_full": "2062-Sep-01 19:21",
            "epoch_date_close_approach": 2924364060000,
            "relative_velocity": {
                "kilometers_per_second": "9.8872179729",
                "kilometers_per_hour": "35593.9847024662",
                "miles_per_hour": "22116.7178835963"
            },
            "miss_distance": {
                "astronomical": "0.0306339936",
                "lunar": "11.9166235104",
                "kilometers": "4582780.192153632",
                "miles": "2847607.5660868416"
            },
            "orbiting_body": "Mars"
        },
        {
            "close_approach_date": "2071-03-05",
            "close_approach_date_full": "2071-Mar-05 21:00",
            "epoch_date_close_approach": 3192814800000,
            "relative_velocity": {
                "kilometers_per_second": "23.0246671347",
                "kilometers_per_hour": "82888.8016848764",
                "miles_per_hour": "51503.8779135834"
            },
            "miss_distance": {
                "astronomical": "0.4192923656",
                "lunar": "163.1047302184",
                "kilometers": "62725244.801021272",
                "miles": "38975659.7939946736"
            },
            "orbiting_body": "Earth"
        }
    ],
    "orbital_data": {
        "orbit_id": "4",
        "orbit_determination_date": "2020-10-26 09:35:45",
        "first_observation_date": "2020-08-14",
        "last_observation_date": "2020-08-26",
        "data_arc_in_days": 12,
        "observations_used": 24,
        "orbit_uncertainty": "8",
        "minimum_orbit_intersection": ".0192242",
        "jupiter_tisserand_invariant": "4.693",
        "epoch_osculation": "2459079.5",
        "eccentricity": ".3922029588848933",
        "semi_major_axis": "1.389212861382508",
        "inclination": "4.547125231787963",
        "ascending_node_longitude": "332.1036258197683",
        "orbital_period": "598.0694515905125",
        "perihelion_distance": ".8443594666273391",
        "perihelion_argument": "279.8383615361055",
        "aphelion_distance": "1.934066256137676",
        "perihelion_time": "2459020.743147835650",
        "mean_anomaly": "35.36791040390526",
        "mean_motion": ".6019367801559034",
        "equinox": "J2000",
        "orbit_class": {
            "orbit_class_type": "APO",
            "orbit_class_description": "Near-Earth asteroid orbits which cross the Earth’s orbit similar to that of 1862 Apollo",
            "orbit_class_range": "a (semi-major axis) > 1.0 AU; q (perihelion) < 1.017 AU"
        }
    },
    "is_sentry_object": false
}